ONEWEB-0350             
1 49214U 21083AE  26012.94694645 -.00000125  00000+0 -37674-3 0  9991
2 49214  87.9002 351.0724 0001743  95.1998 264.9330 13.13468030210555
ONEWEB-0351             
1 49215U 21083AF  26013.03353485 -.00000111  00000+0 -30407-3 0  9999
2 49215  87.9232 305.3887 0000892  56.2825 303.8393 13.20771901216295
ONEWEB-0352             
1 49216U 21083AG  26012.92747642  .00000302  00000+0  79106-3 0  9998
2 49216  87.8992 351.0953 0001382  78.7610 281.3675 13.13469613210648
ONEWEB-0354             
1 49217U 21083AH  26013.05892529  .00000013  00000+0  12586-5 0  9999
2 49217  87.9230 305.3825 0001760  86.7189 273.4145 13.20770991216333
ONEWEB-0355             
1 49218U 21083AJ  26013.18492833 -.00000367  00000+0 -10396-2 0  9996
2 49218  87.8986 351.0576 0001569  88.0148 272.1161 13.13468187210554
ONEWEB-0357             
1 49219U 21083AK  26013.05577855  .00002746  00000+0  67204-2 0  9992
2 49219  87.9233 305.3785 0001445  75.0943 285.0350 13.20758237216338
ONEWEB-0332             
1 49279U 21090A   26013.09057567 -.00000082  00000+0 -25654-3 0  9990
2 49279  87.9014 320.6210 0001684  70.8077 289.3235 13.14501451207202
ONEWEB-0347             
1 49280U 21090B   26013.04629243 -.00000005  00000+0 -44902-4 0  9996
2 49280  87.9224 305.3898 0001870  67.4466 292.6865 13.20773491210561
